CCSDS_OMM_VERS = 2.0
CREATION_DATE  = 
ORIGINATOR     = 

OBJECT_NAME    = STARLINK-35278
OBJECT_ID      = 2025-224W
CENTER_NAME    = EARTH
REF_FRAME      = TEME
TIME_SYSTEM    = UTC
MEAN_ELEMENT_THEORY = SGP/SGP4

EPOCH          = 2025-10-30T06:00:02.000160
MEAN_MOTION    = 15.49288510
ECCENTRICITY   = .00011146
INCLINATION    = 53.1595
RA_OF_ASC_NODE = 259.1076
ARG_OF_PERICENTER = 91.1296
MEAN_ANOMALY   = 22.5550

EPHEMERIS_TYPE = 0
CLASSIFICATION_TYPE = U
NORAD_CAT_ID   = 65902
ELEMENT_SET_NO = 999
REV_AT_EPOCH   = 491
BSTAR          = -.31737601E-3
MEAN_MOTION_DOT = -.18046E-3
MEAN_MOTION_DDOT = 0

CCSDS_OMM_VERS = 2.0
CREATION_DATE  = 
ORIGINATOR     = 

OBJECT_NAME    = STARLINK-35210
OBJECT_ID      = 2025-224X
CENTER_NAME    = EARTH
REF_FRAME      = TEME
TIME_SYSTEM    = UTC
MEAN_ELEMENT_THEORY = SGP/SGP4

EPOCH          = 2025-10-30T06:00:02.000160
MEAN_MOTION    = 15.49289992
ECCENTRICITY   = .00012816
INCLINATION    = 53.1595
RA_OF_ASC_NODE = 259.1118
ARG_OF_PERICENTER = 88.3060
MEAN_ANOMALY   = 23.4571

EPHEMERIS_TYPE = 0
CLASSIFICATION_TYPE = U
NORAD_CAT_ID   = 65903
ELEMENT_SET_NO = 999
REV_AT_EPOCH   = 489
BSTAR          = -.30020806E-3
MEAN_MOTION_DOT = -.17097E-3
MEAN_MOTION_DDOT = 0

CCSDS_OMM_VERS = 2.0
CREATION_DATE  = 
ORIGINATOR     = 

OBJECT_NAME    = STARLINK-35348
OBJECT_ID      = 2025-224Y
CENTER_NAME    = EARTH
REF_FRAME      = TEME
TIME_SYSTEM    = UTC
MEAN_ELEMENT_THEORY = SGP/SGP4

EPOCH          = 2025-10-30T06:00:02.000160
MEAN_MOTION    = 15.49287468
ECCENTRICITY   = .0001015
INCLINATION    = 53.1594
RA_OF_ASC_NODE = 259.1155
ARG_OF_PERICENTER = 83.2957
MEAN_ANOMALY   = 26.5462

EPHEMERIS_TYPE = 0
CLASSIFICATION_TYPE = U
NORAD_CAT_ID   = 65904
ELEMENT_SET_NO = 999
REV_AT_EPOCH   = 486
BSTAR          = -.70875479E-4
MEAN_MOTION_DOT = -.4384E-4
MEAN_MOTION_DDOT = 0

CCSDS_OMM_VERS = 2.0
CREATION_DATE  = 
ORIGINATOR     = 

OBJECT_NAME    = STARLINK-35380
OBJECT_ID      = 2025-224Z
CENTER_NAME    = EARTH
REF_FRAME      = TEME
TIME_SYSTEM    = UTC
MEAN_ELEMENT_THEORY = SGP/SGP4

EPOCH          = 2025-10-30T06:00:02.000160
MEAN_MOTION    = 15.49284633
ECCENTRICITY   = .0001319
INCLINATION    = 53.1595
RA_OF_ASC_NODE = 259.1046
ARG_OF_PERICENTER = 90.2075
MEAN_ANOMALY   = 25.3910

EPHEMERIS_TYPE = 0
CLASSIFICATION_TYPE = U
NORAD_CAT_ID   = 65905
ELEMENT_SET_NO = 999
REV_AT_EPOCH   = 486
BSTAR          = -.11206703E-3
MEAN_MOTION_DOT = -.667E-4
MEAN_MOTION_DDOT = 0

CCSDS_OMM_VERS = 2.0
CREATION_DATE  = 
ORIGINATOR     = 

OBJECT_NAME    = STARLINK-35385
OBJECT_ID      = 2025-224AA
CENTER_NAME    = EARTH
REF_FRAME      = TEME
TIME_SYSTEM    = UTC
MEAN_ELEMENT_THEORY = SGP/SGP4

EPOCH          = 2025-10-30T06:00:02.000160
MEAN_MOTION    = 15.49293746
ECCENTRICITY   = .00012584
INCLINATION    = 53.1596
RA_OF_ASC_NODE = 259.0964
ARG_OF_PERICENTER = 86.2024
MEAN_ANOMALY   = 33.2285

EPHEMERIS_TYPE = 0
CLASSIFICATION_TYPE = U
NORAD_CAT_ID   = 65906
ELEMENT_SET_NO = 999
REV_AT_EPOCH   = 489
BSTAR          = -.44806323E-3
MEAN_MOTION_DOT = -.25274E-3
MEAN_MOTION_DDOT = 0

CCSDS_OMM_VERS = 2.0
CREATION_DATE  = 
ORIGINATOR     = 

OBJECT_NAME    = STARLINK-35347
OBJECT_ID      = 2025-224AB
CENTER_NAME    = EARTH
REF_FRAME      = TEME
TIME_SYSTEM    = UTC
MEAN_ELEMENT_THEORY = SGP/SGP4

EPOCH          = 2025-10-30T06:00:02.000160
MEAN_MOTION    = 15.49290515
ECCENTRICITY   = .00013134
INCLINATION    = 53.1594
RA_OF_ASC_NODE = 259.0919
ARG_OF_PERICENTER = 84.8262
MEAN_ANOMALY   = 36.5197

EPHEMERIS_TYPE = 0
CLASSIFICATION_TYPE = U
NORAD_CAT_ID   = 65907
ELEMENT_SET_NO = 999
REV_AT_EPOCH   = 489
BSTAR          = -.33352354E-3
MEAN_MOTION_DOT = -.1894E-3
MEAN_MOTION_DDOT = 0

CCSDS_OMM_VERS = 2.0
CREATION_DATE  = 
ORIGINATOR     = 

OBJECT_NAME    = STARLINK-35329
OBJECT_ID      = 2025-224AC
CENTER_NAME    = EARTH
REF_FRAME      = TEME
TIME_SYSTEM    = UTC
MEAN_ELEMENT_THEORY = SGP/SGP4

EPOCH          = 2025-10-30T06:00:02.000160
MEAN_MOTION    = 15.49287253
ECCENTRICITY   = .00013048
INCLINATION    = 53.1596
RA_OF_ASC_NODE = 259.0998
ARG_OF_PERICENTER = 86.3086
MEAN_ANOMALY   = 31.2089

EPHEMERIS_TYPE = 0
CLASSIFICATION_TYPE = U
NORAD_CAT_ID   = 65908
ELEMENT_SET_NO = 999
REV_AT_EPOCH   = 490
BSTAR          = -.26498291E-3
MEAN_MOTION_DOT = -.15146E-3
MEAN_MOTION_DDOT = 0

CCSDS_OMM_VERS = 2.0
CREATION_DATE  = 
ORIGINATOR     = 

OBJECT_NAME    = STARLINK-35387
OBJECT_ID      = 2025-224AD
CENTER_NAME    = EARTH
REF_FRAME      = TEME
TIME_SYSTEM    = UTC
MEAN_ELEMENT_THEORY = SGP/SGP4

EPOCH          = 2025-10-30T06:00:02.000160
MEAN_MOTION    = 15.49294100
ECCENTRICITY   = .00014647
INCLINATION    = 53.1596
RA_OF_ASC_NODE = 259.0869
ARG_OF_PERICENTER = 87.9747
MEAN_ANOMALY   = 35.2834

EPHEMERIS_TYPE = 0
CLASSIFICATION_TYPE = U
NORAD_CAT_ID   = 65909
ELEMENT_SET_NO = 999
REV_AT_EPOCH   = 486
BSTAR          = -.32354049E-3
MEAN_MOTION_DOT = -.18391E-3
MEAN_MOTION_DDOT = 0

CCSDS_OMM_VERS = 2.0
CREATION_DATE  = 
ORIGINATOR     = 

OBJECT_NAME    = STARLINK-35523
OBJECT_ID      = 2025-225A
CENTER_NAME    = EARTH
REF_FRAME      = TEME
TIME_SYSTEM    = UTC
MEAN_ELEMENT_THEORY = SGP/SGP4

EPOCH          = 2025-10-30T06:00:02.000160
MEAN_MOTION    = 15.62179598
ECCENTRICITY   = .00012158
INCLINATION    = 53.1597
RA_OF_ASC_NODE = 54.4331
ARG_OF_PERICENTER = 74.2112
MEAN_ANOMALY   = 41.1016

EPHEMERIS_TYPE = 0
CLASSIFICATION_TYPE = U
NORAD_CAT_ID   = 65910
ELEMENT_SET_NO = 999
REV_AT_EPOCH   = 443
BSTAR          = -.2510807E-1
MEAN_MOTION_DOT = -.1978686E-1
MEAN_MOTION_DDOT = 0

CCSDS_OMM_VERS = 2.0
CREATION_DATE  = 
ORIGINATOR     = 

OBJECT_NAME    = STARLINK-35160
OBJECT_ID      = 2025-225B
CENTER_NAME    = EARTH
REF_FRAME      = TEME
TIME_SYSTEM    = UTC
MEAN_ELEMENT_THEORY = SGP/SGP4

EPOCH          = 2025-10-30T06:00:02.000160
MEAN_MOTION    = 15.62181025
ECCENTRICITY   = .00012252
INCLINATION    = 53.1594
RA_OF_ASC_NODE = 54.4295
ARG_OF_PERICENTER = 73.0721
MEAN_ANOMALY   = 44.1557

EPHEMERIS_TYPE = 0
CLASSIFICATION_TYPE = U
NORAD_CAT_ID   = 65911
ELEMENT_SET_NO = 999
REV_AT_EPOCH   = 438
BSTAR          = -.25121765E-1
MEAN_MOTION_DOT = -.1979739E-1
MEAN_MOTION_DDOT = 0

CCSDS_OMM_VERS = 2.0
CREATION_DATE  = 
ORIGINATOR     = 

OBJECT_NAME    = STARLINK-35508
OBJECT_ID      = 2025-225C
CENTER_NAME    = EARTH
REF_FRAME      = TEME
TIME_SYSTEM    = UTC
MEAN_ELEMENT_THEORY = SGP/SGP4

EPOCH          = 2025-10-30T06:00:02.000160
MEAN_MOTION    = 15.62179221
ECCENTRICITY   = .00012179
INCLINATION    = 53.1600
RA_OF_ASC_NODE = 54.4244
ARG_OF_PERICENTER = 74.7727
MEAN_ANOMALY   = 44.3736

EPHEMERIS_TYPE = 0
CLASSIFICATION_TYPE = U
NORAD_CAT_ID   = 65912
ELEMENT_SET_NO = 999
REV_AT_EPOCH   = 438
BSTAR          = -.25096605E-1
MEAN_MOTION_DOT = -.1977868E-1
MEAN_MOTION_DDOT = 0

CCSDS_OMM_VERS = 2.0
CREATION_DATE  = 
ORIGINATOR     = 

OBJECT_NAME    = STARLINK-35472
OBJECT_ID      = 2025-225D
CENTER_NAME    = EARTH
REF_FRAME      = TEME
TIME_SYSTEM    = UTC
MEAN_ELEMENT_THEORY = SGP/SGP4

EPOCH          = 2025-10-30T06:00:02.000160
MEAN_MOTION    = 15.62181208
ECCENTRICITY   = .00012275
INCLINATION    = 53.1600
RA_OF_ASC_NODE = 54.4209
ARG_OF_PERICENTER = 72.4699
MEAN_ANOMALY   = 48.5898

EPHEMERIS_TYPE = 0
CLASSIFICATION_TYPE = U
NORAD_CAT_ID   = 65913
ELEMENT_SET_NO = 999
REV_AT_EPOCH   = 442
BSTAR          = -.25107179E-1
MEAN_MOTION_DOT = -.1978742E-1
MEAN_MOTION_DDOT = 0

