STARLINK-35278          
1 65902U 25224W   25303.25002315 -.00018046  00000+0 -31738-3 0  9993
2 65902  53.1595 259.1076 0001114  91.1296  22.5550 15.49288510  4913
STARLINK-35210          
1 65903U 25224X   25303.25002315 -.00017097  00000+0 -30021-3 0  9993
2 65903  53.1595 259.1118 0001281  88.3060  23.4571 15.49289992  4898
STARLINK-35348          
1 65904U 25224Y   25303.25002315 -.00004384  00000+0 -70875-4 0  9991
2 65904  53.1594 259.1155 0001015  83.2957  26.5462 15.49287468  4869
STARLINK-35380          
1 65905U 25224Z   25303.25002315 -.00006670  00000+0 -11207-3 0  9995
2 65905  53.1595 259.1046 0001319  90.2075  25.3910 15.49284633  4862
STARLINK-35385          
1 65906U 25224AA  25303.25002315 -.00025274  00000+0 -44806-3 0  9998
2 65906  53.1596 259.0964 0001258  86.2024  33.2285 15.49293746  4894
STARLINK-35347          
1 65907U 25224AB  25303.25002315 -.00018940  00000+0 -33352-3 0  9995
2 65907  53.1594 259.0919 0001313  84.8262  36.5197 15.49290515  4892
STARLINK-35329          
1 65908U 25224AC  25303.25002315 -.00015146  00000+0 -26498-3 0  9994
2 65908  53.1596 259.0998 0001304  86.3086  31.2089 15.49287253  4902
STARLINK-35387          
1 65909U 25224AD  25303.25002315 -.00018391  00000+0 -32354-3 0  9998
2 65909  53.1596 259.0869 0001464  87.9747  35.2834 15.49294100  4864
STARLINK-35523          
1 65910U 25225A   25303.25002315 -.01978686  00000+0 -25108-1 0  9991
2 65910  53.1597  54.4331 0001215  74.2112  41.1016 15.62179598  4436
STARLINK-35160          
1 65911U 25225B   25303.25002315 -.01979739  00000+0 -25122-1 0  9998
2 65911  53.1594  54.4295 0001225  73.0721  44.1557 15.62181025  4382
STARLINK-35508          
1 65912U 25225C   25303.25002315 -.01977868  00000+0 -25097-1 0  9991
2 65912  53.1600  54.4244 0001217  74.7727  44.3736 15.62179221  4386
STARLINK-35472          
1 65913U 25225D   25303.25002315 -.01978742  00000+0 -25107-1 0  9996
2 65913  53.1600  54.4209 0001227  72.4699  48.5898 15.62181208  4420
